[{"OBJECT_NAME":"STARLINK-2033","OBJECT_ID":"2021-012AG","EPOCH":"2026-03-09T22:36:32.826240","MEAN_MOTION":15.29332756,"ECCENTRICITY":0.00015832,"INCLINATION":53.1575,"RA_OF_ASC_NODE":48.3997,"ARG_OF_PERICENTER":87.1336,"MEAN_ANOMALY":272.9845,"EPHEMERIS_TYPE":0,"CLASSIFICATION_TYPE":"U","NORAD_CAT_ID":47650,"ELEMENT_SET_NO":999,"REV_AT_EPOCH":28032,"BSTAR":8.202581e-5,"MEAN_MOTION_DOT":2.01e-5,"MEAN_MOTION_DDOT":0},{"OBJECT_NAME":"STARLINK-31630","OBJECT_ID":"2024-050T","EPOCH":"2026-03-09T13:39:04.940352","MEAN_MOTION":15.30200807,"ECCENTRICITY":0.0001409,"INCLINATION":53.16,"RA_OF_ASC_NODE":168.5079,"ARG_OF_PERICENTER":92.3163,"MEAN_ANOMALY":267.7999,"EPHEMERIS_TYPE":0,"CLASSIFICATION_TYPE":"U","NORAD_CAT_ID":59271,"ELEMENT_SET_NO":999,"REV_AT_EPOCH":11071,"BSTAR":-5.7526e-5,"MEAN_MOTION_DOT":-2.063e-5,"MEAN_MOTION_DDOT":0}]
